{
  "norad_id": 68454,
  "name": "TRANSPORTER-16 OBJECT AQ",
  "history": [
    {
      "epoch": "2026-04-14T01:54:50.079456Z",
      "apogee_km": 517.3915034475694,
      "perigee_km": 512.5258050871353,
      "latitude_deg": -3.297349320179474e-05,
      "longitude_deg": -167.4768751786319,
      "height_km": 516.9352801138685,
      "semi_major_axis_km": 6893.095654267352,
      "eccentricity": 0.00035294,
      "inclination_deg": 97.4523,
      "raan_deg": 63.4931,
      "arg_perigee_deg": 297.199,
      "mean_anomaly_deg": 62.8883,
      "mean_motion_rev_day": 15.16985062
    }
  ]
}