TRANSPORTER-16 OBJECT AQ
1 68454U 26067AQ  26104.07974629  .00004468  00000+0  22958-3 0  9995
2 68454  97.4523  63.4931 0003529 297.1990  62.8883 15.16985062  2214
